NORAD_CAT_ID,OBJECT_NAME,OBJECT_TYPE,EPOCH,MEAN_MOTION,ECCENTRICITY,INCLINATION,RA_OF_ASC_NODE,ARG_OF_PERICENTER,MEAN_ANOMALY,BSTAR,MEAN_MOTION_DOT,MEAN_MOTION_DDOT,TLE_LINE0,TLE_LINE1,TLE_LINE2,SEMIMAJOR_AXIS,PERIOD,APOGEE,PERIGEE,DECAYED
55425.0,STARLINK-5615,PAYLOAD,2024-05-17 12:20:55,14.98336611,0.000272,69.9996,311.5492,273.7478,86.337,-0.00015267,-1.914e-05,0.0,0 STARLINK-5615,1 55425U 23014AL  24138.51452666 -.00001914  00000-0 -15267-3 0  9995,2 55425  69.9996 311.5492 0002720 273.7478  86.3370 14.98336611 72520,6950.172,96.107,573.928,570.147,0.0
55425.0,STARLINK-5615,PAYLOAD,2024-05-17 21:57:43,14.98334966,0.0002695,69.9997,310.5392,274.5305,85.5546,-0.00015573,-1.951e-05,0.0,0 STARLINK-5615,1 55425U 23014AL  24138.91508603 -.00001951  00000-0 -15573-3 0  9993,2 55425  69.9997 310.5392 0002695 274.5305  85.5546 14.98334966 72581,6950.178,96.107,573.916,570.169,0.0
55425.0,STARLINK-5615,PAYLOAD,2024-05-18 04:22:15,14.9834042,0.0002709,70.0003,309.8658,275.1478,84.9371,-0.00013573,-1.712e-05,0.0,0 STARLINK-5615,1 55425U 23014AL  24139.18212079 -.00001712  00000-0 -13573-3 0  9995,2 55425  70.0003 309.8658 0002709 275.1478  84.9371 14.98340420 71683,6950.161,96.106,573.908,570.143,0.0
55425.0,STARLINK-5615,PAYLOAD,2024-05-18 13:59:03,14.98332825,0.000277,69.9999,308.8556,268.9076,91.1766,7.405e-05,7.91e-06,0.0,0 STARLINK-5615,1 55425U 23014AL  24139.58267717  .00000791  00000-0  74050-4 0  9990,2 55425  69.9999 308.8556 0002770 268.9076  91.1766 14.98332825 72681,6950.184,96.107,573.974,570.124,0.0
55425.0,STARLINK-5615,PAYLOAD,2024-05-18 20:23:35,14.98341818,0.0002925,69.9995,308.1836,270.3758,89.7066,1.5312e-05,9e-07,0.0,0 STARLINK-5615,1 55425U 23014AL  24139.84971203  .00000090  00000-0  15312-4 0  9999,2 55425  69.9995 308.1836 0002925 270.3758  89.7066 14.98341818 72720,6950.156,96.106,574.054,569.988,0.0
55425.0,STARLINK-5615,PAYLOAD,2024-05-19 04:24:15,14.98333281,0.0002766,69.9995,307.3408,270.1894,89.8948,-7.7597e-05,-1.019e-05,0.0,0 STARLINK-5615,1 55425U 23014AL  24140.18351833 -.00001019  00000-0 -77597-4 0  9996,2 55425  69.9995 307.3408 0002766 270.1894  89.8948 14.98333281 71834,6950.183,96.107,573.97,570.125,0.0
55425.0,STARLINK-5615,PAYLOAD,2024-05-19 14:01:05,14.98311617,0.0002893,69.9994,306.3318,268.3598,91.7229,-0.0001159,-1.475e-05,0.0,0 STARLINK-5615,1 55425U 23014AL  24140.58409506 -.00001475  00000-0 -11590-3 0  9997,2 55425  69.9994 306.3318 0002893 268.3598  91.7229 14.98311617 72837,6950.25,96.108,574.125,570.104,0.0
55425.0,STARLINK-5615,PAYLOAD,2024-05-19 20:25:37,14.98316296,0.0002856,69.9994,305.6583,269.095,90.9882,-9.0207e-05,-1.169e-05,0.0,0 STARLINK-5615,1 55425U 23014AL  24140.85113397 -.00001169  00000-0 -90207-4 0  9990,2 55425  69.9994 305.6583 0002856 269.0950  90.9882 14.98316296 71936,6950.235,96.108,574.085,570.115,0.0
55425.0,STARLINK-5615,PAYLOAD,2024-05-20 12:26:57,14.98333679,0.0002962,69.9994,303.9753,268.6613,91.4207,1.8657e-05,1.3e-06,0.0,0 STARLINK-5615,1 55425U 23014AL  24141.51872145  .00000130  00000-0  18657-4 0  9991,2 55425  69.9994 303.9753 0002962 268.6613  91.4207 14.98333679 72038,6950.182,96.107,574.105,569.988,0.0
55425.0,STARLINK-5615,PAYLOAD,2024-05-20 20:27:37,14.98341973,0.0002997,69.9994,303.1331,268.7741,91.3075,6.7228e-05,7.09e-06,0.0,0 STARLINK-5615,1 55425U 23014AL  24141.85251380  .00000709  00000-0  67228-4 0  9990,2 55425  69.9994 303.1331 0002997 268.7741  91.3075 14.98341973 72086,6950.156,96.106,574.104,569.938,0.0
55425.0,STARLINK-5615,PAYLOAD,2024-05-21 12:28:58,14.98319837,0.0002724,70.0008,301.4519,256.4278,103.6578,0.00015111,1.71e-05,0.0,0 STARLINK-5615,1 55425U 23014AL  24142.52012532  .00001710  00000-0  15111-3 0  9995,2 55425  70.0008 301.4519 0002724 256.4278 103.6578 14.98319837 72181,6950.224,96.108,573.983,570.196,0.0
55425.0,STARLINK-5615,PAYLOAD,2024-05-21 14:05:06,14.98319914,0.0002738,70.0005,301.2831,257.5962,102.4891,0.00014424,1.628e-05,0.0,0 STARLINK-5615,1 55425U 23014AL  24142.58688586  .00001628  00000-0  14424-3 0  9993,2 55425  70.0005 301.2831 0002738 257.5962 102.4891 14.98319914 73137,6950.224,96.108,573.992,570.186,0.0
55425.0,STARLINK-5615,PAYLOAD,2024-05-21 20:29:39,14.98321224,0.0002557,70.0011,300.6109,247.7323,112.3565,0.00015331,1.736e-05,0.0,0 STARLINK-5615,1 55425U 23014AL  24142.85392600  .00001736  00000-0  15331-3 0  9990,2 55425  70.0011 300.6109 0002557 247.7323 112.3565 14.98321224 73175,6950.22,96.108,573.862,570.308,0.0
55425.0,STARLINK-5615,PAYLOAD,2024-05-22 12:30:59,14.98331701,0.0002596,70.0008,298.9259,253.6643,106.423,-5.7012e-05,-7.73e-06,0.0,0 STARLINK-5615,1 55425U 23014AL  24143.52152527 -.00000773  00000-0 -57012-4 0  9992,2 55425  70.0008 298.9259 0002596 253.6643 106.4230 14.98331701 72331,6950.188,96.107,573.857,570.248,0.0
55425.0,STARLINK-5615,PAYLOAD,2024-05-22 20:31:40,14.98330338,0.000262,70.0007,298.0842,255.9904,104.0964,-6.8255e-05,-9.07e-06,0.0,0 STARLINK-5615,1 55425U 23014AL  24143.85532628 -.00000907  00000-0 -68255-4 0  9992,2 55425  70.0007 298.0842 0002620 255.9904 104.0964 14.98330338 73325,6950.192,96.107,573.878,570.236,0.0
55425.0,STARLINK-5615,PAYLOAD,2024-05-23 12:33:00,14.98329257,0.000274,70.0,296.4004,261.3852,98.6997,1.1155e-05,4e-07,0.0,0 STARLINK-5615,1 55425U 23014AL  24144.52292474  .00000040  00000-0  11155-4 0  9992,2 55425  70.0000 296.4004 0002740 261.3852  98.6997 14.98329257 72484,6950.195,96.107,573.965,570.156,0.0
55425.0,STARLINK-5615,PAYLOAD,2024-05-23 14:09:08,14.98329183,0.0002743,70.0001,296.2321,261.3688,98.716,1.0263e-05,2.9e-07,0.0,0 STARLINK-5615,1 55425U 23014AL  24144.58968483  .00000029  00000-0  10263-4 0  9994,2 55425  70.0001 296.2321 0002743 261.3688  98.7160 14.98329183 73432,6950.195,96.107,573.967,570.154,0.0
55425.0,STARLINK-5615,PAYLOAD,2024-05-23 20:33:40,14.9833232,0.0002702,70.0001,295.5585,261.9653,98.1199,4.7562e-05,4.75e-06,0.0,0 STARLINK-5615,1 55425U 23014AL  24144.85672182  .00000475  00000-0  47562-4 0  9999,2 55425  70.0001 295.5585 0002702 261.9653  98.1199 14.98332320 73476,6950.186,96.107,573.929,570.173,0.0
55425.0,STARLINK-5615,PAYLOAD,2024-05-24 12:35:01,14.98328548,0.0002649,70.0001,293.8749,260.8634,99.2226,4.2894e-05,4.19e-06,0.0,0 STARLINK-5615,1 55425U 23014AL  24145.52432364  .00000419  00000-0  42894-4 0  9991,2 55425  70.0001 293.8749 0002649 260.8634  99.2226 14.98328548 72633,6950.197,96.107,573.903,570.221,0.0
55425.0,STARLINK-5615,PAYLOAD,2024-05-24 14:11:09,14.98328476,0.0002656,70.0001,293.7066,260.7281,99.3577,4.074e-05,3.93e-06,0.0,0 STARLINK-5615,1 55425U 23014AL  24145.59108377  .00000393  00000-0  40740-4 0  9991,2 55425  70.0001 293.7066 0002656 260.7281  99.3577 14.98328476 73584,6950.198,96.107,573.909,570.217,0.0
55425.0,STARLINK-5615,PAYLOAD,2024-05-24 18:59:33,14.9833008,0.0002644,70.0001,293.2016,263.2894,96.7964,5.535e-05,5.68e-06,0.0,0 STARLINK-5615,1 55425U 23014AL  24145.79136254  .00000568  00000-0  55350-4 0  9995,2 55425  70.0001 293.2016 0002644 263.2894  96.7964 14.98330080 73618,6950.193,96.107,573.895,570.22,0.0
55425.0,STARLINK-5615,PAYLOAD,2024-05-25 12:37:02,14.98329047,0.0002668,70.0,291.3501,259.4593,100.6265,-2.1477e-05,-3.49e-06,0.0,0 STARLINK-5615,1 55425U 23014AL  24146.52572496 -.00000349  00000-0 -21477-4 0  9991,2 55425  70.0000 291.3501 0002668 259.4593 100.6265 14.98329047 72781,6950.196,96.107,573.915,570.207,0.0
55425.0,STARLINK-5615,PAYLOAD,2024-05-25 14:13:10,14.98328699,0.0002677,70.0,291.1818,259.2541,100.8317,-2.5597e-05,-3.98e-06,0.0,0 STARLINK-5615,1 55425U 23014AL  24146.59248529 -.00000398  00000-0 -25597-4 0  9996,2 55425  70.0000 291.1818 0002677 259.2541 100.8317 14.98328699 73739,6950.197,96.107,573.922,570.201,0.0
55425.0,STARLINK-5615,PAYLOAD,2024-05-26 12:39:03,14.9832772,0.0003252,69.9995,288.8252,271.4035,88.6752,-8.7067e-06,-1.97e-06,0.0,0 STARLINK-5615,1 55425U 23014AL  24147.52712609 -.00000197  00000-0 -87067-5 0  9993,2 55425  69.9995 288.8252 0003252 271.4035  88.6752 14.98327720 72939,6950.2,96.107,574.325,569.805,0.0
55425.0,STARLINK-5615,PAYLOAD,2024-05-26 14:15:11,14.98328287,0.0003102,69.9995,288.6564,267.9045,92.1759,-9.8053e-06,-2.1e-06,0.0,0 STARLINK-5615,1 55425U 23014AL  24147.59388592 -.00000210  00000-0 -98053-5 0  9993,2 55425  69.9995 288.6564 0003102 267.9045  92.1759 14.98328287 73889,6950.198,96.107,574.219,569.907,0.0
55425.0,STARLINK-5615,PAYLOAD,2024-05-26 19:03:35,14.98332999,0.0003032,69.9995,288.1514,268.3756,91.7056,2.7197e-05,2.32e-06,0.0,0 STARLINK-5615,1 55425U 23014AL  24147.79416182  .00000232  00000-0  27197-4 0  9994,2 55425  69.9995 288.1514 0003032 268.3756  91.7056 14.98332999 73919,6950.184,96.107,574.156,569.941,0.0
55425.0,STARLINK-5615,PAYLOAD,2024-05-27 14:17:12,14.98328318,0.000302,69.9999,286.1323,266.8246,93.2568,5.4454e-05,5.57e-06,0.0,0 STARLINK-5615,1 55425U 23014AL  24148.59528362  .00000557  00000-0  54454-4 0  9993,2 55425  69.9999 286.1323 0003020 266.8246  93.2568 14.98328318 74032,6950.198,96.107,574.162,569.964,0.0
55425.0,STARLINK-5615,PAYLOAD,2024-05-27 19:05:36,14.98330576,0.0002995,69.9999,285.6274,266.4802,93.6015,7.6884e-05,8.24e-06,0.0,0 STARLINK-5615,1 55425U 23014AL  24148.79556155  .00000824  00000-0  76884-4 0  9994,2 55425  69.9999 285.6274 0002995 266.4802  93.6015 14.98330576 73124,6950.191,96.107,574.138,569.975,0.0
55425.0,STARLINK-5615,PAYLOAD,2024-05-28 14:19:13,14.98334012,0.0002955,70.0001,283.6072,265.3094,94.7728,2.8544e-05,2.48e-06,0.0,0 STARLINK-5615,1 55425U 23014AL  24149.59667923  .00000248  00000-0  28544-4 0  9999,2 55425  70.0001 283.6072 0002955 265.3094  94.7728 14.98334012 74181,6950.18,96.107,574.099,569.992,0.0
55425.0,STARLINK-5615,PAYLOAD,2024-05-28 19:07:37,14.98334991,0.0002957,70.0001,283.1023,265.6862,94.3959,3.7003e-05,3.49e-06,0.0,0 STARLINK-5615,1 55425U 23014AL  24149.79695778  .00000349  00000-0  37003-4 0  9992,2 55425  70.0001 283.1023 0002957 265.6862  94.3959 14.98334991 73277,6950.177,96.107,574.098,569.987,0.0
